ORBCOMM FM24 [-]        
1 25478U 98053D   23278.53052556  .00002724  00000+0  10022-2 0  9995
2 25478  45.0092 323.4077 0002205 282.6963  77.3638 14.34714577308490
ORBCOMM FM25 [-]        
1 25479U 98053E   23278.56387872  .00002444  00000+0  90484-3 0  9991
2 25479  45.0084 321.4828 0002981 341.7745  18.2994 14.34696956308512
ORBCOMM FM26 [-]        
1 25480U 98053F   23278.49646332  .00002070  00000+0  78015-3 0  9995
2 25480  45.0081 315.1158 0004077  25.3695 334.7352 14.34280346308453
ORBCOMM FM27 [+]        
1 25481U 98053G   23278.54846871  .00002444  00000+0  90527-3 0  9999
2 25481  45.0066 321.8108 0002418 244.9898 115.0698 14.34670435308441
ORBCOMM FM30 [-]        
1 25980U 99065A   23278.33972970  .00001947  00000+0  73501-3 0  9994
2 25980  45.0315 141.1659 0005768 137.2192 222.9105 14.34402777245227
ORBCOMM FM31 [-]        
1 25981U 99065B   23278.44688858  .00001679  00000+0  64059-3 0  9996
2 25981  45.0226 134.5334 0002877 159.4842 200.6121 14.34435667244797
ORBCOMM FM32 [+]        
1 25982U 99065C   23278.61851747  .00001695  00000+0  65949-3 0  9992
2 25982  45.0155 145.9238 0004838 166.2878 193.8101 14.33379861245471
